start=new Date('2022-03-04T00:00:00.000Z').valueOf();
sats=[{"INCLINATION":"53.0549","MEAN_MOTION_DDOT":"0.0000000000000","REV_AT_EPOCH":"11897","MEAN_ELEMENT_THEORY":"SGP4","COUNTRY_CODE":"US","TLE_LINE1":"1 44952U 20001AQ  22062.41176258 -.00000061  00000-0  14838-4 0  9999","DECAY_DATE":null,"LAUNCH_DATE":"2020-01-07","REF_FRAME":"TEME","MEAN_ANOMALY":"312.8667","APOAPSIS":"548.484","OBJECT_TYPE":"PAYLOAD","RCS_SIZE":"LARGE","EPHEMERIS_TYPE":"0","CLASSIFICATION_TYPE":"U","TIME_SYSTEM":"UTC","ELEMENT_SET_NO":"999","RA_OF_ASC_NODE":"73.4849","EPOCH":"2022-03-03T09:52:56.286912","NORAD_CAT_ID":"44952","CENTER_NAME":"EARTH","PERIOD":"95.592","OBJECT_ID":"2020-001AQ","SEMIMAJOR_AXIS":"6925.351","ARG_OF_PERICENTER":"47.2476","GP_ID":"197705113","TLE_LINE2":"2 44952  53.0549  73.4849 0001830  47.2476 312.8667 15.06399064118971","SITE":"AFETR","PERIAPSIS":"545.949","MEAN_MOTION":"15.06399064","BSTAR":"0.00001483800000","FILE":"3342689","ECCENTRICITY":"0.00018300","MEAN_MOTION_DOT":"-0.00000061","OBJECT_NAME":"STARLINK-1117"},{"SEMIMAJOR_AXIS":"6925.329","ARG_OF_PERICENTER":"65.5040","OBJECT_ID":"2020-001AR","SITE":"AFETR","PERIAPSIS":"546.003","GP_ID":"197766282","TLE_LINE2":"2 44953  53.0534  71.9115 0001719  65.5040 294.6128 15.06406536120314","MEAN_MOTION":"15.06406536","BSTAR":"0.00005908400000","FILE":"3343255","OBJECT_NAME":"STARLINK-1124","MEAN_MOTION_DOT":"0.00000599","ECCENTRICITY":"0.00017190","REV_AT_EPOCH":"12031","MEAN_ELEMENT_THEORY":"SGP4","INCLINATION":"53.0534","MEAN_MOTION_DDOT":"0.0000000000000","APOAPSIS":"548.384","DECAY_DATE":null,"TLE_LINE1":"1 44953U 20001AR  22062.76097310  .00000599  00000-0  59084-4 0  9996","REF_FRAME":"TEME","LAUNCH_DATE":"2020-01-07","COUNTRY_CODE":"US","MEAN_ANOMALY":"294.6128","RCS_SIZE":"LARGE","OBJECT_TYPE":"PAYLOAD","CLASSIFICATION_TYPE":"U","EPHEMERIS_TYPE":"0","TIME_SYSTEM":"UTC","RA_OF_ASC_NODE":"71.9115","ELEMENT_SET_NO":"999","EPOCH":"2022-03-03T18:15:48.075840","NORAD_CAT_ID":"44953","PERIOD":"95.592","CENTER_NAME":"EARTH"},{"ARG_OF_PERICENTER":"53.7717","SEMIMAJOR_AXIS":"6925.352","OBJECT_ID":"2020-001AS","FILE":"3342689","BSTAR":"0.00011486000000","OBJECT_NAME":"STARLINK-1066","MEAN_MOTION_DOT":"0.00001430","ECCENTRICITY":"0.00019700","PERIAPSIS":"545.853","SITE":"AFETR","TLE_LINE2":"2 44954  53.0541  53.3344 0001970  53.7717 306.3454 15.06398811119205","GP_ID":"197706113","MEAN_MOTION":"15.06398811","RCS_SIZE":"LARGE","OBJECT_TYPE":"PAYLOAD","CLASSIFICATION_TYPE":"U","EPHEMERIS_TYPE":"0","MEAN_ELEMENT_THEORY":"SGP4","REV_AT_EPOCH":"11920","MEAN_MOTION_DDOT":"0.0000000000000","INCLINATION":"53.0541","APOAPSIS":"548.581","MEAN_ANOMALY":"306.3454","TLE_LINE1":"1 44954U 20001AS  22062.44308899  .00001430  00000-0  11486-3 0  9997","LAUNCH_DATE":"2020-01-07","DECAY_DATE":null,"COUNTRY_CODE":"US","REF_FRAME":"TEME","NORAD_CAT_ID":"44954","EPOCH":"2022-03-03T10:38:02.888736","PERIOD":"95.592","CENTER_NAME":"EARTH","TIME_SYSTEM":"UTC","RA_OF_ASC_NODE":"53.3344","ELEMENT_SET_NO":"999"},{"OBJECT_ID":"2020-001AT","ARG_OF_PERICENTER":"57.3798","SEMIMAJOR_AXIS":"6925.351","FILE":"3343001","BSTAR":"0.00005782100000","ECCENTRICITY":"0.00017740","MEAN_MOTION_DOT":"0.00000580","OBJECT_NAME":"STARLINK-1069","TLE_LINE2":"2 44955  53.0564  53.6243 0001774  57.3798 302.7362 15.06399207119199","GP_ID":"197743090","SITE":"AFETR","PERIAPSIS":"545.987","MEAN_MOTION":"15.06399207","RCS_SIZE":"LARGE","OBJECT_TYPE":"PAYLOAD","EPHEMERIS_TYPE":"0","CLASSIFICATION_TYPE":"U","MEAN_MOTION_DDOT":"0.0000000000000","INCLINATION":"53.0564","MEAN_ELEMENT_THEORY":"SGP4","REV_AT_EPOCH":"11919","MEAN_ANOMALY":"302.7362","DECAY_DATE":null,"TLE_LINE1":"1 44955U 20001AT  22062.38411145  .00000580  00000-0  57821-4 0  9999","COUNTRY_CODE":"US","LAUNCH_DATE":"2020-01-07","REF_FRAME":"TEME","APOAPSIS":"548.445","NORAD_CAT_ID":"44955","EPOCH":"2022-03-03T09:13:07.229280","CENTER_NAME":"EARTH","PERIOD":"95.592","TIME_SYSTEM":"UTC","ELEMENT_SET_NO":"999","RA_OF_ASC_NODE":"53.6243"},{"MEAN_MOTION":"15.06404967","SITE":"AFETR","PERIAPSIS":"546.079","TLE_LINE2":"2 44956  53.0555  53.6318 0001616  69.4175 290.6987 15.06404967119256","GP_ID":"197704614","OBJECT_NAME":"STARLINK-1070","MEAN_MOTION_DOT":"0.00001178","ECCENTRICITY":"0.00016160","BSTAR":"0.00009796000000","FILE":"3342689","SEMIMAJOR_AXIS":"6925.333","ARG_OF_PERICENTER":"69.4175","OBJECT_ID":"2020-001AU","RA_OF_ASC_NODE":"53.6318","ELEMENT_SET_NO":"999","TIME_SYSTEM":"UTC","PERIOD":"95.592","CENTER_NAME":"EARTH","EPOCH":"2022-03-03T09:07:48.546336","NORAD_CAT_ID":"44956","APOAPSIS":"548.317","REF_FRAME":"TEME","TLE_LINE1":"1 44956U 20001AU  22062.38042299  .00001178  00000-0  97960-4 0  9992","DECAY_DATE":null,"LAUNCH_DATE":"2020-01-07","COUNTRY_CODE":"US","MEAN_ANOMALY":"290.6987","REV_AT_EPOCH":"11925","MEAN_ELEMENT_THEORY":"SGP4","INCLINATION":"53.0555","MEAN_MOTION_DDOT":"0.0000000000000","CLASSIFICATION_TYPE":"U","EPHEMERIS_TYPE":"0","OBJECT_TYPE":"PAYLOAD","RCS_SIZE":"LARGE"},{"OBJECT_ID":"2020-001AV","SEMIMAJOR_AXIS":"6925.329","ARG_OF_PERICENTER":"65.1889","MEAN_MOTION_DOT":"0.00001033","ECCENTRICITY":"0.00013860","OBJECT_NAME":"STARLINK-1074","FILE":"3343255","BSTAR":"0.00008820600000","MEAN_MOTION":"15.06406323","TLE_LINE2":"2 44957  53.0560  52.3296 0001386  65.1889 294.9244 15.06406323119298","GP_ID":"197765782","SITE":"AFETR","PERIAPSIS":"546.234","EPHEMERIS_TYPE":"0","CLASSIFICATION_TYPE":"U","RCS_SIZE":"LARGE","OBJECT_TYPE":"PAYLOAD","MEAN_ANOMALY":"294.9244","DECAY_DATE":null,"TLE_LINE1":"1 44957U 20001AV  22062.67161174  .00001033  00000-0  88206-4 0  9992","COUNTRY_CODE":"US","LAUNCH_DATE":"2020-01-07","REF_FRAME":"TEME","APOAPSIS":"548.154","MEAN_MOTION_DDOT":"0.0000000000000","INCLINATION":"53.0560","MEAN_ELEMENT_THEORY":"SGP4","REV_AT_EPOCH":"11929","CENTER_NAME":"EARTH","PERIOD":"95.592","NORAD_CAT_ID":"44957","EPOCH":"2022-03-03T16:07:07.254336","ELEMENT_SET_NO":"999","RA_OF_ASC_NODE":"52.3296","TIME_SYSTEM":"UTC"},{"RA_OF_ASC_NODE":"52.2538","ELEMENT_SET_NO":"999","TIME_SYSTEM":"UTC","PERIOD":"95.592","CENTER_NAME":"EARTH","EPOCH":"2022-03-03T16:28:21.094464","NORAD_CAT_ID":"44959","APOAPSIS":"548.409","TLE_LINE1":"1 44959U 20001AX  22062.68635526  .00001345  00000-0  10914-3 0  9998","LAUNCH_DATE":"2020-01-07","DECAY_DATE":null,"REF_FRAME":"TEME","COUNTRY_CODE":"US","MEAN_ANOMALY":"310.9145","MEAN_ELEMENT_THEORY":"SGP4","REV_AT_EPOCH":"11929","INCLINATION":"53.0542","MEAN_MOTION_DDOT":"0.0000000000000","CLASSIFICATION_TYPE":"U","EPHEMERIS_TYPE":"0","RCS_SIZE":"LARGE","OBJECT_TYPE":"PAYLOAD","MEAN_MOTION":"15.06407779","SITE":"AFETR","PERIAPSIS":"545.970","TLE_LINE2":"2 44959  53.0542  52.2538 0001761  49.1997 310.9145 15.06407779119292","GP_ID":"197766533","OBJECT_NAME":"STARLINK-1076","ECCENTRICITY":"0.00017610","MEAN_MOTION_DOT":"0.00001345","BSTAR":"0.00010914000000","FILE":"3343255","ARG_OF_PERICENTER":"49.1997","SEMIMAJOR_AXIS":"6925.325","OBJECT_ID":"2020-001AX"},{"CENTER_NAME":"EARTH","PERIOD":"95.591","EPOCH":"2022-03-03T16:38:58.024896","NORAD_CAT_ID":"44961","ELEMENT_SET_NO":"999","RA_OF_ASC_NODE":"52.2250","TIME_SYSTEM":"UTC","EPHEMERIS_TYPE":"0","CLASSIFICATION_TYPE":"U","OBJECT_TYPE":"PAYLOAD","RCS_SIZE":"LARGE","LAUNCH_DATE":"2020-01-07","TLE_LINE1":"1 44961U 20001AZ  22062.69372714  .00001388  00000-0  11206-3 0  9991","DECAY_DATE":null,"COUNTRY_CODE":"US","REF_FRAME":"TEME","MEAN_ANOMALY":"293.2187","APOAPSIS":"548.311","INCLINATION":"53.0558","MEAN_MOTION_DDOT":"0.0000000000000","MEAN_ELEMENT_THEORY":"SGP4","REV_AT_EPOCH":"11930","MEAN_MOTION_DOT":"0.00001388","ECCENTRICITY":"0.00016300","OBJECT_NAME":"STARLINK-1080","BSTAR":"0.00011206000000","FILE":"3343255","MEAN_MOTION":"15.06410226","GP_ID":"197764781","TLE_LINE2":"2 44961  53.0558  52.2250 0001630  66.8974 293.2187 15.06410226119301","SITE":"AFETR","PERIAPSIS":"546.053","OBJECT_ID":"2020-001AZ","SEMIMAJOR_AXIS":"6925.317","ARG_OF_PERICENTER":"66.8974"},{"ARG_OF_PERICENTER":"86.5101","SEMIMAJOR_AXIS":"6912.405","OBJECT_ID":"2020-001BB","BSTAR":"0.00074665000000","FILE":"3343255","OBJECT_NAME":"STARLINK-1085","MEAN_MOTION_DOT":"0.00012214","ECCENTRICITY":"0.00026370","SITE":"AFETR","PERIAPSIS":"532.448","GP_ID":"197765031","TLE_LINE2":"2 44963  52.9990  45.3147 0002637  86.5101 273.6191 15.10632949120108","MEAN_MOTION":"15.10632949","OBJECT_TYPE":"PAYLOAD","RCS_SIZE":"LARGE","CLASSIFICATION_TYPE":"U","EPHEMERIS_TYPE":"0","MEAN_ELEMENT_THEORY":"SGP4","REV_AT_EPOCH":"12010","INCLINATION":"52.9990","MEAN_MOTION_DDOT":"0.0000000000000","APOAPSIS":"536.093","TLE_LINE1":"1 44963U 20001BB  22062.68599261  .00012214  00000-0  74665-3 0  9998","DECAY_DATE":null,"COUNTRY_CODE":"US","LAUNCH_DATE":"2020-01-07","REF_FRAME":"TEME","MEAN_ANOMALY":"273.6191","EPOCH":"2022-03-03T16:27:49.761504","NORAD_CAT_ID":"44963","PERIOD":"95.324","CENTER_NAME":"EARTH","TIME_SYSTEM":"UTC","RA_OF_ASC_NODE":"45.3147","ELEMENT_SET_NO":"999"},{"OBJECT_ID":"2020-001BC","SEMIMAJOR_AXIS":"6925.324","ARG_OF_PERICENTER":"71.2133","TLE_LINE2":"2 44964  53.0546  52.3791 0001525  71.2133 288.9021 15.06408113119290","GP_ID":"197766283","PERIAPSIS":"546.133","SITE":"AFETR","MEAN_MOTION":"15.06408113","BSTAR":"-0.00004547300000","FILE":"3343255","MEAN_MOTION_DOT":"-0.00000959","ECCENTRICITY":"0.00015250","OBJECT_NAME":"STARLINK-1086","INCLINATION":"53.0546","MEAN_MOTION_DDOT":"0.0000000000000","MEAN_ELEMENT_THEORY":"SGP4","REV_AT_EPOCH":"11929","DECAY_DATE":null,"TLE_LINE1":"1 44964U 20001BC  22062.65687798 -.00000959  00000-0 -45473-4 0  9990","LAUNCH_DATE":"2020-01-07","REF_FRAME":"TEME","COUNTRY_CODE":"US","MEAN_ANOMALY":"288.9021","APOAPSIS":"548.245","RCS_SIZE":"LARGE","OBJECT_TYPE":"PAYLOAD","EPHEMERIS_TYPE":"0","CLASSIFICATION_TYPE":"U","TIME_SYSTEM":"UTC","ELEMENT_SET_NO":"999","RA_OF_ASC_NODE":"52.3791","EPOCH":"2022-03-03T15:45:54.257472","NORAD_CAT_ID":"44964","CENTER_NAME":"EARTH","PERIOD":"95.592"}];
